STARLINK-36915          
1 68061U 26041X   26087.95339836  .00307884  00000+0  19384-2 0  9999
2 68061  53.1597 325.7157 0002373  94.0505 266.0786 15.75262718  4262
